[{"OBJECT_NAME":"SAUDISAT 5B","OBJECT_ID":"2018-102C","EPOCH":"2026-03-09T22:59:17.457216","MEAN_MOTION":15.27248504,"ECCENTRICITY":0.00120577,"INCLINATION":97.3281,"RA_OF_ASC_NODE":135.3629,"ARG_OF_PERICENTER":124.0958,"MEAN_ANOMALY":236.1427,"EPHEMERIS_TYPE":0,"CLASSIFICATION_TYPE":"U","NORAD_CAT_ID":43833,"ELEMENT_SET_NO":999,"REV_AT_EPOCH":40064,"BSTAR":0.00024926623,"MEAN_MOTION_DOT":6.596e-5,"MEAN_MOTION_DDOT":0},{"OBJECT_NAME":"STARLINK-31787","OBJECT_ID":"2024-082V","EPOCH":"2026-03-09T05:50:33.653184","MEAN_MOTION":15.27563218,"ECCENTRICITY":0.00013535,"INCLINATION":43.0025,"RA_OF_ASC_NODE":142.3366,"ARG_OF_PERICENTER":279.3186,"MEAN_ANOMALY":80.7512,"EPHEMERIS_TYPE":0,"CLASSIFICATION_TYPE":"U","NORAD_CAT_ID":59650,"ELEMENT_SET_NO":999,"REV_AT_EPOCH":10494,"BSTAR":4.8583506e-5,"MEAN_MOTION_DOT":1.074e-5,"MEAN_MOTION_DDOT":0}]
